[{"OBJECT_NAME":"JAM-E JAM 1","OBJECT_ID":"2026-028B","EPOCH":"2026-03-12T19:01:04.274112","MEAN_MOTION":1.00231393,"ECCENTRICITY":0.000575,"INCLINATION":0.4861,"RA_OF_ASC_NODE":286.1715,"ARG_OF_PERICENTER":134.5705,"MEAN_ANOMALY":68.8815,"EPHEMERIS_TYPE":0,"CLASSIFICATION_TYPE":"U","NORAD_CAT_ID":67757,"ELEMENT_SET_NO":999,"REV_AT_EPOCH":15,"BSTAR":0,"MEAN_MOTION_DOT":1.55e-6,"MEAN_MOTION_DDOT":0},{"OBJECT_NAME":"KUIPER-00159","OBJECT_ID":"2026-030A","EPOCH":"2026-03-12T18:07:56.705952","MEAN_MOTION":15.35950165,"ECCENTRICITY":0.0005305,"INCLINATION":51.885,"RA_OF_ASC_NODE":204.3801,"ARG_OF_PERICENTER":51.4706,"MEAN_ANOMALY":308.6755,"EPHEMERIS_TYPE":0,"CLASSIFICATION_TYPE":"U","NORAD_CAT_ID":67764,"ELEMENT_SET_NO":999,"REV_AT_EPOCH":556,"BSTAR":0.0012608,"MEAN_MOTION_DOT":0.00044699,"MEAN_MOTION_DDOT":0},{"OBJECT_NAME":"KUIPER-00160","OBJECT_ID":"2026-030B","EPOCH":"2026-03-12T15:03:27.631296","MEAN_MOTION":15.35770396,"ECCENTRICITY":0.000553,"INCLINATION":51.882,"RA_OF_ASC_NODE":205.0098,"ARG_OF_PERICENTER":62.3887,"MEAN_ANOMALY":297.766,"EPHEMERIS_TYPE":0,"CLASSIFICATION_TYPE":"U","NORAD_CAT_ID":67765,"ELEMENT_SET_NO":999,"REV_AT_EPOCH":554,"BSTAR":0.0010199,"MEAN_MOTION_DOT":0.00035835,"MEAN_MOTION_DDOT":0},{"OBJECT_NAME":"KUIPER-00177","OBJECT_ID":"2026-030C","EPOCH":"2026-03-12T20:00:01.999008","MEAN_MOTION":15.30603078,"ECCENTRICITY":0.0002406,"INCLINATION":51.885,"RA_OF_ASC_NODE":203.9106,"ARG_OF_PERICENTER":19.6151,"MEAN_ANOMALY":82.9864,"EPHEMERIS_TYPE":0,"CLASSIFICATION_TYPE":"U","NORAD_CAT_ID":67766,"ELEMENT_SET_NO":999,"REV_AT_EPOCH":547,"BSTAR":-0.046392,"MEAN_MOTION_DOT":-0.01275555,"MEAN_MOTION_DDOT":0},{"OBJECT_NAME":"KUIPER-00178","OBJECT_ID":"2026-030D","EPOCH":"2026-03-12T20:00:01.999008","MEAN_MOTION":15.33118811,"ECCENTRICITY":0.0006754,"INCLINATION":51.8839,"RA_OF_ASC_NODE":204.069,"ARG_OF_PERICENTER":49.9188,"MEAN_ANOMALY":351.7255,"EPHEMERIS_TYPE":0,"CLASSIFICATION_TYPE":"U","NORAD_CAT_ID":67767,"ELEMENT_SET_NO":999,"REV_AT_EPOCH":485,"BSTAR":-0.045128,"MEAN_MOTION_DOT":-0.01339055,"MEAN_MOTION_DDOT":0},{"OBJECT_NAME":"KUIPER-00180","OBJECT_ID":"2026-030E","EPOCH":"2026-03-12T20:00:01.999008","MEAN_MOTION":15.30124241,"ECCENTRICITY":0.0015035,"INCLINATION":51.8805,"RA_OF_ASC_NODE":204.6114,"ARG_OF_PERICENTER":78.5679,"MEAN_ANOMALY":48.077,"EPHEMERIS_TYPE":0,"CLASSIFICATION_TYPE":"U","NORAD_CAT_ID":67768,"ELEMENT_SET_NO":999,"REV_AT_EPOCH":229,"BSTAR":0.0021795,"MEAN_MOTION_DOT":0.00064867,"MEAN_MOTION_DDOT":0},{"OBJECT_NAME":"KUIPER-00197","OBJECT_ID":"2026-030F","EPOCH":"2026-03-12T14:43:39.232992","MEAN_MOTION":15.36533933,"ECCENTRICITY":0.0001778,"INCLINATION":51.8826,"RA_OF_ASC_NODE":204.9277,"ARG_OF_PERICENTER":60.0576,"MEAN_ANOMALY":300.0587,"EPHEMERIS_TYPE":0,"CLASSIFICATION_TYPE":"U","NORAD_CAT_ID":67769,"ELEMENT_SET_NO":999,"REV_AT_EPOCH":554,"BSTAR":0.00062765,"MEAN_MOTION_DOT":0.00022408,"MEAN_MOTION_DDOT":0},{"OBJECT_NAME":"KUIPER-00198","OBJECT_ID":"2026-030G","EPOCH":"2026-03-12T18:00:09.249120","MEAN_MOTION":15.36244731,"ECCENTRICITY":0.0003865,"INCLINATION":51.8815,"RA_OF_ASC_NODE":204.335,"ARG_OF_PERICENTER":50.0974,"MEAN_ANOMALY":310.0351,"EPHEMERIS_TYPE":0,"CLASSIFICATION_TYPE":"U","NORAD_CAT_ID":67770,"ELEMENT_SET_NO":999,"REV_AT_EPOCH":556,"BSTAR":0.00091728,"MEAN_MOTION_DOT":0.00032668,"MEAN_MOTION_DDOT":0},{"OBJECT_NAME":"KUIPER-00199","OBJECT_ID":"2026-030H","EPOCH":"2026-03-12T18:43:11.422848","MEAN_MOTION":15.34538938,"ECCENTRICITY":0.0010957,"INCLINATION":51.8816,"RA_OF_ASC_NODE":204.5267,"ARG_OF_PERICENTER":68.1463,"MEAN_ANOMALY":292.0687,"EPHEMERIS_TYPE":0,"CLASSIFICATION_TYPE":"U","NORAD_CAT_ID":67771,"ELEMENT_SET_NO":999,"REV_AT_EPOCH":556,"BSTAR":0.0010239,"MEAN_MOTION_DOT":0.0003462,"MEAN_MOTION_DDOT":0},{"OBJECT_NAME":"KUIPER-00200","OBJECT_ID":"2026-030J","EPOCH":"2026-03-12T19:07:46.050528","MEAN_MOTION":15.37266381,"ECCENTRICITY":0.0001084,"INCLINATION":51.8807,"RA_OF_ASC_NODE":203.9068,"ARG_OF_PERICENTER":293.5322,"MEAN_ANOMALY":66.5551,"EPHEMERIS_TYPE":0,"CLASSIFICATION_TYPE":"U","NORAD_CAT_ID":67772,"ELEMENT_SET_NO":999,"REV_AT_EPOCH":557,"BSTAR":0.0011583,"MEAN_MOTION_DOT":0.00042799,"MEAN_MOTION_DDOT":0},{"OBJECT_NAME":"KUIPER-00203","OBJECT_ID":"2026-030K","EPOCH":"2026-03-12T20:00:01.999008","MEAN_MOTION":15.07762474,"ECCENTRICITY":0.001156,"INCLINATION":51.8917,"RA_OF_ASC_NODE":205.5301,"ARG_OF_PERICENTER":71.0762,"MEAN_ANOMALY":270.8186,"EPHEMERIS_TYPE":0,"CLASSIFICATION_TYPE":"U","NORAD_CAT_ID":67773,"ELEMENT_SET_NO":999,"REV_AT_EPOCH":413,"BSTAR":0.0026866,"MEAN_MOTION_DOT":0.00041566,"MEAN_MOTION_DDOT":0},{"OBJECT_NAME":"KUIPER-00205","OBJECT_ID":"2026-030L","EPOCH":"2026-03-12T17:51:50.069664","MEAN_MOTION":15.36589725,"ECCENTRICITY":0.0003598,"INCLINATION":51.8805,"RA_OF_ASC_NODE":204.2983,"ARG_OF_PERICENTER":28.7003,"MEAN_ANOMALY":331.4181,"EPHEMERIS_TYPE":0,"CLASSIFICATION_TYPE":"U","NORAD_CAT_ID":67774,"ELEMENT_SET_NO":999,"REV_AT_EPOCH":556,"BSTAR":0.0011831,"MEAN_MOTION_DOT":0.0004278,"MEAN_MOTION_DDOT":0},{"OBJECT_NAME":"KUIPER-00208","OBJECT_ID":"2026-030M","EPOCH":"2026-03-12T19:16:28.660800","MEAN_MOTION":15.32194773,"ECCENTRICITY":0.0016021,"INCLINATION":51.8829,"RA_OF_ASC_NODE":204.6825,"ARG_OF_PERICENTER":67.0958,"MEAN_ANOMALY":293.1716,"EPHEMERIS_TYPE":0,"CLASSIFICATION_TYPE":"U","NORAD_CAT_ID":67775,"ELEMENT_SET_NO":999,"REV_AT_EPOCH":556,"BSTAR":0.00067685,"MEAN_MOTION_DOT":0.00021118,"MEAN_MOTION_DDOT":0},{"OBJECT_NAME":"KUIPER-00209","OBJECT_ID":"2026-030N","EPOCH":"2026-03-11T21:41:40.885152","MEAN_MOTION":15.2984677,"ECCENTRICITY":0.0012749,"INCLINATION":51.8837,"RA_OF_ASC_NODE":209.1524,"ARG_OF_PERICENTER":69.4648,"MEAN_ANOMALY":290.7702,"EPHEMERIS_TYPE":0,"CLASSIFICATION_TYPE":"U","NORAD_CAT_ID":67776,"ELEMENT_SET_NO":999,"REV_AT_EPOCH":542,"BSTAR":-0.00098812,"MEAN_MOTION_DOT":-0.00029302,"MEAN_MOTION_DDOT":0},{"OBJECT_NAME":"KUIPER-00213","OBJECT_ID":"2026-030P","EPOCH":"2026-03-12T20:48:31.717728","MEAN_MOTION":15.32708008,"ECCENTRICITY":0.0015507,"INCLINATION":51.8795,"RA_OF_ASC_NODE":204.35,"ARG_OF_PERICENTER":73.7814,"MEAN_ANOMALY":286.4875,"EPHEMERIS_TYPE":0,"CLASSIFICATION_TYPE":"U","NORAD_CAT_ID":67777,"ELEMENT_SET_NO":999,"REV_AT_EPOCH":557,"BSTAR":0.00093855,"MEAN_MOTION_DOT":0.0002994,"MEAN_MOTION_DDOT":0},{"OBJECT_NAME":"KUIPER-00214","OBJECT_ID":"2026-030Q","EPOCH":"2026-03-12T19:13:49.893024","MEAN_MOTION":15.36944551,"ECCENTRICITY":5.55e-5,"INCLINATION":51.8832,"RA_OF_ASC_NODE":203.9405,"ARG_OF_PERICENTER":351.6615,"MEAN_ANOMALY":8.4362,"EPHEMERIS_TYPE":0,"CLASSIFICATION_TYPE":"U","NORAD_CAT_ID":67778,"ELEMENT_SET_NO":999,"REV_AT_EPOCH":557,"BSTAR":0.00059883,"MEAN_MOTION_DOT":0.00021647,"MEAN_MOTION_DDOT":0},{"OBJECT_NAME":"KUIPER-00215","OBJECT_ID":"2026-030R","EPOCH":"2026-03-11T17:39:47.569536","MEAN_MOTION":15.34588543,"ECCENTRICITY":0.00105203,"INCLINATION":51.8834,"RA_OF_ASC_NODE":209.5383,"ARG_OF_PERICENTER":66.2297,"MEAN_ANOMALY":293.9791,"EPHEMERIS_TYPE":0,"CLASSIFICATION_TYPE":"U","NORAD_CAT_ID":67779,"ELEMENT_SET_NO":999,"REV_AT_EPOCH":540,"BSTAR":0.0009528564,"MEAN_MOTION_DOT":0.00032228,"MEAN_MOTION_DDOT":0}]
