JAM-E JAM 1             
1 67757U 26028B   26071.79241058  .00000155  00000+0  00000+0 0  9991
2 67757   0.4861 286.1715 0005750 134.5705  68.8815  1.00231393   159
KUIPER-00159            
1 67764U 26030A   26071.75551743  .00044699  00000+0  12608-2 0  9994
2 67764  51.8850 204.3801 0005305  51.4706 308.6755 15.35950165  5563
KUIPER-00160            
1 67765U 26030B   26071.62740314  .00035835  00000+0  10199-2 0  9990
2 67765  51.8820 205.0098 0005530  62.3887 297.7660 15.35770396  5545
KUIPER-00177            
1 67766U 26030C   26071.83335647 -.01275555  00000+0 -46392-1 0  9994
2 67766  51.8850 203.9106 0002406  19.6151  82.9864 15.30603078  5473
KUIPER-00178            
1 67767U 26030D   26071.83335647 -.01339055  00000+0 -45128-1 0  9997
2 67767  51.8839 204.0690 0006754  49.9188 351.7255 15.33118811  4858
KUIPER-00180            
1 67768U 26030E   26071.83335647  .00064867  00000+0  21795-2 0  9996
2 67768  51.8805 204.6114 0015035  78.5679  48.0770 15.30124241  2299
KUIPER-00197            
1 67769U 26030F   26071.61364853  .00022408  00000+0  62765-3 0  9992
2 67769  51.8826 204.9277 0001778  60.0576 300.0587 15.36533933  5543
KUIPER-00198            
1 67770U 26030G   26071.75010705  .00032668  00000+0  91728-3 0  9993
2 67770  51.8815 204.3350 0003865  50.0974 310.0351 15.36244731  5566
KUIPER-00199            
1 67771U 26030H   26071.77999332  .00034620  00000+0  10239-2 0  9995
2 67771  51.8816 204.5267 0010957  68.1463 292.0687 15.34538938  5564
KUIPER-00200            
1 67772U 26030J   26071.79706077  .00042799  00000+0  11583-2 0  9999
2 67772  51.8807 203.9068 0001084 293.5322  66.5551 15.37266381  5574
KUIPER-00203            
1 67773U 26030K   26071.83335647  .00041566  00000+0  26866-2 0  9997
2 67773  51.8917 205.5301 0011560  71.0762 270.8186 15.07762474  4138
KUIPER-00205            
1 67774U 26030L   26071.74432951  .00042780  00000+0  11831-2 0  9999
2 67774  51.8805 204.2983 0003598  28.7003 331.4181 15.36589725  5561
KUIPER-00208            
1 67775U 26030M   26071.80310950  .00021118  00000+0  67685-3 0  9992
2 67775  51.8829 204.6825 0016021  67.0958 293.1716 15.32194773  5566
KUIPER-00209            
1 67776U 26030N   26070.90394543 -.00029302  00000+0 -98812-3 0  9994
2 67776  51.8837 209.1524 0012749  69.4648 290.7702 15.29846770  5427
KUIPER-00213            
1 67777U 26030P   26071.86703377  .00029940  00000+0  93855-3 0  9998
2 67777  51.8795 204.3500 0015507  73.7814 286.4875 15.32708008  5574
KUIPER-00214            
1 67778U 26030Q   26071.80127191  .00021647  00000+0  59883-3 0  9996
2 67778  51.8832 203.9405 0000555 351.6615   8.4362 15.36944551  5572
KUIPER-00215            
1 67779U 26030R   26070.73596724  .00032228  00000+0  95286-3 0  9994
2 67779  51.8834 209.5383 0010520  66.2297 293.9791 15.34588543  5402
